[Satellite]
VERSION=1.1
NAME=FORMOSAT-3 FM5
NICKNAME=FORMOSAT-3 FM5
TLE1=1 29049U 06011C   19317.03265503 -.00000001  00000-0  15846-4 0  9997
TLE2=2 29049  72.0197 275.3181 0033039  61.4027 299.0427 14.28746344708547
STATUS=0
